
STARLINK-2709           
1 48664U 21044AC  25062.16804015  .01467180  00000+0  14343-1 0  9991
2 48664  53.0488 334.5038 0000327 105.9355 254.1695 15.62717251208823
STARLINK-2666           
1 48666U 21044AE  25061.92782781  .00001099  00000+0  92709-4 0  9998
2 48666  53.0572 340.9929 0001630 106.6060 253.5108 15.06389579207803
STARLINK-2735           
1 48667U 21044AF  25062.16365590  .00022038  00000+0  14919-2 0  9992
2 48667  53.0552 339.4607 0001472  92.4716 267.6441 15.06446351208698
STARLINK-2738           
1 48668U 21044AG  25062.02729362  .00027886  00000+0  18825-2 0  9995
2 48668  53.0545 340.0772 0001318  74.7970 285.3165 15.06421304208732
STARLINK-2707           
1 48669U 21044AH  25062.08995516  .00020557  00000+0  13944-2 0  9993
2 48669  53.0554 339.7941 0001426 106.1264 253.9882 15.06415090208677
STARLINK-2763           
1 48670U 21044AJ  25062.15261673  .00020846  00000+0  14141-2 0  9994
2 48670  53.0554 339.5132 0001466 108.9684 251.1464 15.06403508208687
STARLINK-2745           
1 48671U 21044AK  25061.91306048  .00033117  00000+0  22291-2 0  9994
2 48671  53.0567 340.8942 0001738  91.6943 268.4245 15.06444027207806
STARLINK-2705           
1 48672U 21044AL  25062.14524871  .00023279  00000+0  15762-2 0  9990
2 48672  53.0543 339.5500 0001191  81.6917 278.4207 15.06408135208742
STARLINK-2711           
1 48673U 21044AM  25061.94251941  .00027181  00000+0  18359-2 0  9994
2 48673  53.0554 340.4557 0001565  70.5604 289.5554 15.06414404207814
STARLINK-2712           
1 48674U 21044AN  25062.08258703  .00020732  00000+0  14054-2 0  9997
2 48674  53.0549 339.9451 0001700  85.5641 274.5543 15.06431915208733
STARLINK-2746           
1 48676U 21044AQ  25062.13049897  .00026305  00000+0  17773-2 0  9990
2 48676  53.0567 339.6176 0001435  85.1252 274.9901 15.06419714208741
STARLINK-2615           
1 48678U 21044AS  25061.99042454  .00017472  00000+0  11879-2 0  9993
2 48678  53.0559 340.2415 0001616  74.7664 285.3504 15.06431649208667
STARLINK-2648           
1 48679U 21044AT  25062.05307962  .00021964  00000+0  14876-2 0  9991
2 48679  53.0562 339.9612 0001590  82.7304 277.3866 15.06431049208674
STARLINK-2649           
1 48680U 21044AU  25062.04859126  .00357891  00000+0  21766-1 0  9992
2 48680  53.0587 339.9727 0004078 160.2670 199.8479 15.08202536208736
STARLINK-2725           
1 48681U 21044AV  25061.91582646  .00004536  00000+0  32328-3 0  9991
2 48681  53.0541 310.8181 0001306  85.4023 274.7115 15.06395539208228
STARLINK-2743           
1 48682U 21044AW  25061.91303194  .00024476  00000+0  16538-2 0  9990
2 48682  53.0556 300.7513 0000891  75.6643 284.4445 15.06457796208362
STARLINK-2756           
1 48683U 21044AX  25061.93514083  .00016727  00000+0  11384-2 0  9998
2 48683  53.0547 300.4994 0001368  80.2047 279.9097 15.06426073208370
STARLINK-2741           
1 48684U 21044AY  25061.89142310  .00016350  00000+0  11139-2 0  9994
2 48684  53.0537 316.0415 0000961  83.6137 276.4962 15.06403389208150
STARLINK-2751           
1 48685U 21044AZ  25061.90564755  .00037781  00000+0  25388-2 0  9990
2 48685  53.0539 300.6668 0000987  52.9933 307.1146 15.06443134208375
STARLINK-2629           
1 48686U 21044BA  25062.09874451  .00010348  00000+0  71238-3 0  9995
2 48686  53.0545 305.0360 0001435  72.9616 287.1530 15.06409085209226
STARLINK-2627           
1 48687U 21044BB  25062.00747597  .00000959  00000+0  83256-4 0  9998
2 48687  53.0544 295.1631 0001361  86.3028 273.8117 15.06398407209295
STARLINK-2742           
1 48688U 21044BC  25061.87846999  .00009222  00000+0  63704-3 0  9996
2 48688  53.0547 295.7423 0001264  92.1153 267.9980 15.06410061208438
STARLINK-2740           
1 48690U 21044BE  25062.08902001  .00019547  00000+0  13262-2 0  9994
2 48690  53.0539 309.7982 0001444  84.7724 275.3430 15.06437566209151
STARLINK-2750           
1 48691U 21044BF  25061.92915907  .00008477  00000+0  58738-3 0  9994
2 48691  53.0547 305.5096 0001684 107.0884 253.0289 15.06396587208301
STARLINK-2752           
1 48692U 21044BG  25061.91443561  .00015390  00000+0  10491-2 0  9991
2 48692  53.0554 305.7055 0001597  80.9634 279.1535 15.06426577208308
STARLINK-2618           
1 48693U 21044BH  25061.92220791  .00000301  00000+0  39144-4 0  9995
2 48693  53.0543 310.5485 0001782  93.9549 266.1643 15.06343014208235
STARLINK-2748           
1 48694U 21044BJ  25062.08948880 -.00012670  00000+0 -83442-3 0  9993
2 48694  53.0539 314.7861 0001604  86.3025 273.8147 15.06346833209027
STARLINK-2616           
1 48695U 21044BK  25061.91348585  .00000181  00000+0  31020-4 0  9999
2 48695  53.0600 315.6373 0001322  87.7243 272.3898 15.06404665208168
STARLINK-2753           
1 48696U 21044BL  25062.10286299  .00016678  00000+0  11354-2 0  9999
2 48696  53.0552 319.7867 0001343  79.5716 280.5424 15.06415193208967
ONEWEB-0211             
1 48767U 21045A   25061.84027555  .00000000  00000+0 -32821-4 0  9994
2 48767  87.9134 353.0514 0002205  78.6121 281.5257 13.16069756182444
ONEWEB-0223             
1 48768U 21045B   25061.86599979  .00000158  00000+0  38682-3 0  9994
2 48768  87.9137 353.0636 0002361  81.3980 278.7418 13.15549054182439
ONEWEB-0230             
1 48769U 21045C   25061.83748200 -.00000052  00000+0 -17127-3 0  9991
2 48769  87.9122 353.1304 0001838  84.6885 275.4455 13.15549405182698
ONEWEB-0237             
1 48770U 21045D   25061.82639057 -.00000096  00000+0 -28981-3 0  9999
2 48770  87.9144 353.0852 0002189  81.8859 278.2520 13.15549545182410
ONEWEB-0235             
1 48771U 21045E   25061.80104254  .00000138  00000+0  33228-3 0  9999
2 48771  87.9135 353.0797 0002412  84.4790 275.6615 13.15548078182406
ONEWEB-0242             
1 48772U 21045F   25061.87076778 -.00001151  00000+0 -30925-2 0  9994
2 48772  87.9153 353.0505 0001999  77.5533 282.5821 13.15542958182453
ONEWEB-0241             
1 48773U 21045G   25061.85808890  .00000099  00000+0  22864-3 0  9993
2 48773  87.9138 353.1243 0002189  74.0220 286.1151 13.15548329182368
ONEWEB-0243             
1 48774U 21045H   25061.81371828  .00000071  00000+0  15364-3 0  9993
2 48774  87.9144 353.0959 0002328  85.5503 274.5893 13.15549455182382
ONEWEB-0222             
1 48775U 21045J   25061.79708014  .00000192  00000+0  47585-3 0  9996
2 48775  87.9131 353.0750 0002014  76.4231 283.7123 13.15549525182428
ONEWEB-0244             
1 48776U 21045K   25061.82320755 -.00000041  00000+0 -14257-3 0  9998
2 48776  87.9133 353.0485 0001949  84.5820 275.5533 13.15549398182990
ONEWEB-0247             
1 48777U 21045L   25061.82004161 -.00000029  00000+0 -11157-3 0  9991
2 48777  87.9143 353.1103 0002829  87.2141 272.9313 13.15549447182435
ONEWEB-0245             
1 48778U 21045M   25061.81530254  .00000069  00000+0  15052-3 0  9998
2 48778  87.9135 353.0839 0001988  73.0509 287.0839 13.15548965182409
ONEWEB-0229             
1 48779U 21045N   25061.81054509  .00000071  00000+0  15385-3 0  9995
2 48779  87.9136 353.0822 0001936  82.9147 277.2204 13.15550090182435
ONEWEB-0228             
1 48780U 21045P   25061.84392966 -.00000902  00000+0 -24301-2 0  9994
2 48780  87.9130 353.0529 0001971  80.9673 279.1681 13.15548925182351
ONEWEB-0232             
1 48781U 21045Q   25061.81845610 -.00000014  00000+0 -72086-4 0  9990
2 48781  87.9129 353.0593 0001875  79.7791 280.3551 13.15551350182672
ONEWEB-0231             
1 48782U 21045R   25061.87234493  .00000146  00000+0  35468-3 0  9994
2 48782  87.9121 353.1100 0002106  81.4122 278.7247 13.15549548182372
ONEWEB-0234             
1 48783U 21045S   25061.81608918  .00000042  00000+0  77873-4 0  9998
2 48783  87.9136 353.0684 0001641  38.1829 321.9418 13.15550083182503
ONEWEB-0238             
1 48784U 21045T   25061.84619994  .00000000  00000+0 -34624-4 0  9990
2 48784  87.9133 353.0786 0001784  75.8897 284.2432 13.15548520182404
ONEWEB-0240             
1 48785U 21045U   25061.85568713  .00000073  00000+0  15857-3 0  9999
2 48785  87.9131 353.0427 0002242  73.8066 286.3311 13.15552465182436
ONEWEB-0246             
1 48786U 21045V   25061.85016034  .00000028  00000+0  39780-4 0  9996
2 48786  87.9133 353.0524 0001938  83.2388 276.8963 13.15548394182309
ONEWEB-0210             
1 48787U 21045W   25061.82480882 -.00000038  00000+0 -13412-3 0  9996
2 48787  87.9135 353.0588 0002459  92.5021 267.6391 13.15549198182348
ONEWEB-0214             
1 48788U 21045X   25061.83431224 -.00000094  00000+0 -28503-3 0  9993
2 48788  87.9135 353.0460 0002146  92.8042 267.3334 13.15549634182313
ONEWEB-0221             
1 48789U 21045Y   25061.84063870 -.00000022  00000+0 -91740-4 0  9998
2 48789  87.9137 353.0698 0002057  78.2864 281.8497 13.15545773182401
ONEWEB-0213             
1 48790U 21045Z   25061.82956301 -.00000044  00000+0 -15025-3 0  9993
2 48790  87.9135 353.0811 0002145  81.9595 278.1778 13.15548714182463
ONEWEB-0212             
1 48791U 21045AA  25061.88264647  .00000088  00000+0  19969-3 0  9992
2 48791  87.9137 353.0586 0001831  76.6932 283.4403 13.15548029182465
ONEWEB-0227             
1 48792U 21045AB  25061.88185145  .00000164  00000+0  40092-3 0  9994
2 48792  87.9136 353.0717 0001988  77.6380 282.4972 13.15549498182418
ONEWEB-0226             
1 48793U 21045AC  25061.79944663  .00000147  00000+0  35595-3 0  9996
2 48793  87.9135 353.0928 0002160  86.0693 274.0684 13.15546497182374
ONEWEB-0224             
1 48794U 21045AD  25061.83906807  .00000031  00000+0  47935-4 0  9994
2 48794  87.9139 353.1165 0002485  58.3896 301.7476 13.15548428182306
ONEWEB-0233             
1 48795U 21045AE  25061.84370121 -.00000086  00000+0 -26371-3 0  9992
2 48795  87.9138 353.1259 0002125  76.4876 283.6491 13.15544510182325
